STARLINK-31081          
1 58632U 23203Q   26169.85999079 -.00000149  00000+0  41119-5 0  9999
2 58632  43.0020 219.2107 0001266 268.7441  91.3266 15.27574641140222
STARLINK-31022          
1 58633U 23203R   26169.82672914 -.00000342  00000+0 -29051-5 0  9990
2 58633  43.0021 219.8193 0001299 276.0892  83.9812 15.27575860140210
STARLINK-31025          
1 58634U 23203S   26169.83348309 -.00000360  00000+0 -35543-5 0  9993
2 58634  43.0010 215.5019 0000950 262.4943  97.5801 15.27577401140265
STARLINK-31018          
1 58635U 23203T   26169.81438558  .00000636  00000+0  32626-4 0  9990
2 58635  42.9991 216.2926 0001128 272.4262  87.6460 15.27567099140252
STARLINK-31008          
1 58636U 23203U   26169.81693676 -.00000329  00000+0 -24168-5 0  9999
2 58636  42.9986 216.3151 0001286 275.2787  84.7918 15.27576973140253
STARLINK-31077          
1 58637U 23203V   26169.41819657  .00000254  00000+0  18751-4 0  9990
2 58637  43.0042 218.4805 0001227 269.5437  90.5274 15.27577679140198
STARLINK-31078          
1 58638U 23203W   26169.41433759 -.00002063  00000+0 -65498-4 0  9998
2 58638  42.9938 218.4474 0002444 280.1628  79.8948 15.27562939138969
STARLINK-31070          
1 58639U 23203X   26169.82079313 -.00000409  00000+0 -53427-5 0  9998
2 58639  42.9960 216.3428 0001312 267.9773  92.0928 15.27573934139028
STARLINK-31090          
1 58640U 23203Y   26169.79848473 -.00000111  00000+0  54845-5 0  9991
2 58640  42.9990 208.3931 0001285 273.4058  86.6647 15.27576194139129
STARLINK-31113          
1 58668U 23211B   26169.87866744 -.00000388  00000+0 -45693-5 0  9998
2 58668  43.0004 233.5199 0001146 270.0809  89.9912 15.27576701137949
STARLINK-31128          
1 58669U 23211C   26169.89537509 -.00000532  00000+0 -98049-5 0  9999
2 58669  43.0031 233.6428 0001077 269.5084  90.5644 15.27571483137949
STARLINK-31083          
1 58670U 23211D   26169.87481458 -.00004530  00000+0 -15516-3 0  9998
2 58670  43.0006 233.4866 0002418 288.2658  71.7931 15.27578833137948
STARLINK-30828          
1 58671U 23211E   26169.90565000  .00000047  00000+0  11232-4 0  9998
2 58671  43.0018 233.7191 0001832 261.1449  98.9195 15.27575684137947
STARLINK-31104          
1 58672U 23211F   26169.42280132  .00086125  00000+0  13493-2 0  9996
2 58672  42.9891 222.1704 0021155  57.2878 303.0019 15.52486913139319
STARLINK-31131          
1 58673U 23211G   26169.16086506 -.00001951  00000+0 -61438-4 0  9997
2 58673  42.9997 227.0748 0001124 244.3093 115.7643 15.27564082139239
STARLINK-31124          
1 58674U 23211H   26169.49020286  .00001439  00000+0  61816-4 0  9996
2 58674  43.0002 235.7636 0000922 277.7138  82.3609 15.27570334137883
STARLINK-31126          
1 58675U 23211J   26169.86710268 -.00000367  00000+0 -38274-5 0  9998
2 58675  43.0016 233.4240 0001232 273.0857  86.9854 15.27573804137941
STARLINK-31066          
1 58676U 23211K   26169.86066634 -.00003557  00000+0 -11989-3 0  9996
2 58676  43.0134  19.7067 0000314 223.2283 136.8544 15.27551822137504
STARLINK-31058          
1 58677U 23211L   26169.88509292 -.00001135  00000+0 -31738-4 0  9996
2 58677  43.0009 233.5653 0001499 277.7834  82.2848 15.27576132137944
STARLINK-31125          
1 58678U 23211M   26169.90822531  .00000587  00000+0  30855-4 0  9991
2 58678  43.0040 233.7410 0001703 277.1715  82.8943 15.27577333139110
STARLINK-31110          
1 58679U 23211N   26169.88894698  .00000051  00000+0  11389-4 0  9999
2 58679  43.0015 233.5942 0001169 273.5790  86.4928 15.27575881137948
STARLINK-31112          
1 58680U 23211P   26169.89665924 -.00000237  00000+0  91446-6 0  9991
2 58680  43.0017 233.6536 0001185 279.2247  80.8471 15.27572724139126
STARLINK-31147          
1 58681U 23211Q   26169.45437382  .00001542  00000+0  65542-4 0  9994
2 58681  43.0011 236.3571 0001228 265.7669  94.3042 15.27583578137879
STARLINK-31144          
1 58682U 23211R   26169.86967174  .00000094  00000+0  12944-4 0  9996
2 58682  43.0004 233.4445 0001309 277.6430  82.4273 15.27576045137941
STARLINK-31095          
1 58683U 23211S   26169.46722122  .00000905  00000+0  42415-4 0  9992
2 58683  43.0016 236.4474 0001315 269.0746  90.9955 15.27577790139145
STARLINK-31107          
1 58684U 23211T   26169.86596241  .00000612  00000+0  31776-4 0  9991
2 58684  42.9992 234.2762 0001282 277.1622  82.9084 15.27579146137935
STARLINK-31121          
1 58685U 23211U   26169.87352963 -.00000538  00000+0 -10034-4 0  9997
2 58685  43.0007 233.4734 0000964 273.6639  86.4102 15.27572825137948
STARLINK-31137          
1 58686U 23211V   26169.51720376  .00015012  00000+0  55331-3 0  9995
2 58686  42.9994 235.9650 0001841 269.3752  90.6889 15.27616588137886
STARLINK-31106          
1 58689U 23211Y   26169.90179183  .00005513  00000+0  20954-3 0  9993
2 58689  43.0054 233.6952 0001923 285.8211  74.2429 15.27606174137947
STARLINK-11072 [DTC]    
1 58705U 24002A   26169.19965303  .00000182  00000+0  63600-5 0  9993
2 58705  53.1608 138.5401 0001229  83.6018 276.5140 15.69718551142226
