OBJECT_NAME,OBJECT_ID,EPOCH,MEAN_MOTION,ECCENTRICITY,INCLINATION,RA_OF_ASC_NODE,ARG_OF_PERICENTER,MEAN_ANOMALY,EPHEMERIS_TYPE,CLASSIFICATION_TYPE,NORAD_CAT_ID,ELEMENT_SET_NO,REV_AT_EPOCH,BSTAR,MEAN_MOTION_DOT,MEAN_MOTION_DDOT
STARLINK-31081,2023-203Q,2026-06-18T20:38:23.204256,15.27574641,.00012665,43.0020,219.2107,268.7441,91.3266,0,U,58632,999,14022,.4111905E-5,-.149E-5,0
STARLINK-31022,2023-203R,2026-06-18T19:50:29.397696,15.27575860,.00012994,43.0021,219.8193,276.0892,83.9812,0,U,58633,999,14021,-.2905102E-5,-.342E-5,0
STARLINK-31025,2023-203S,2026-06-18T20:00:12.938976,15.27577401,.00009509,43.0010,215.5019,262.4943,97.5801,0,U,58634,999,14026,-.3554336E-5,-.36E-5,0
STARLINK-31018,2023-203T,2026-06-18T19:32:42.914112,15.27567099,.0001128,42.9991,216.2926,272.4262,87.6460,0,U,58635,999,14025,.32626033E-4,.636E-5,0
STARLINK-31008,2023-203U,2026-06-18T19:36:23.336064,15.27576973,.00012861,42.9986,216.3151,275.2787,84.7918,0,U,58636,999,14025,-.2416787E-5,-.329E-5,0
STARLINK-31077,2023-203V,2026-06-18T10:02:12.183648,15.27577679,.0001227,43.0042,218.4805,269.5437,90.5274,0,U,58637,999,14019,.18751E-4,.254E-5,0
STARLINK-31078,2023-203W,2026-06-18T09:56:38.767776,15.27562939,.0002444,42.9938,218.4474,280.1628,79.8948,0,U,58638,999,13896,-.65498E-4,-.2063E-4,0
STARLINK-31070,2023-203X,2026-06-18T19:41:56.526432,15.27573934,.00013127,42.9960,216.3428,267.9773,92.0928,0,U,58639,999,13902,-.5342715E-5,-.409E-5,0
STARLINK-31090,2023-203Y,2026-06-18T19:09:49.080672,15.27576194,.00012857,42.9990,208.3931,273.4058,86.6647,0,U,58640,999,13912,.548447E-5,-.111E-5,0
STARLINK-31113,2023-211B,2026-06-18T21:05:16.866816,15.27576701,.00011462,43.0004,233.5199,270.0809,89.9912,0,U,58668,999,13794,-.4569278E-5,-.388E-5,0
STARLINK-31128,2023-211C,2026-06-18T21:29:20.407776,15.27571483,.00010777,43.0031,233.6428,269.5084,90.5644,0,U,58669,999,13794,-.9804902E-5,-.532E-5,0
STARLINK-31083,2023-211D,2026-06-18T20:59:43.979712,15.27578833,.00024184,43.0006,233.4866,288.2658,71.7931,0,U,58670,999,13794,-.15515686E-3,-.453E-4,0
STARLINK-30828,2023-211E,2026-06-18T21:44:08.160000,15.27575684,.0001832,43.0018,233.7191,261.1449,98.9195,0,U,58671,999,13794,.11232235E-4,.47E-6,0
STARLINK-31104,2023-211F,2026-06-18T10:08:50.034048,15.52486913,.0021155,42.9891,222.1704,57.2878,303.0019,0,U,58672,999,13931,.13493E-2,.86125E-3,0
STARLINK-31131,2023-211G,2026-06-18T03:51:38.741184,15.27564082,.00011245,42.9997,227.0748,244.3093,115.7643,0,U,58673,999,13923,-.61438093E-4,-.1951E-4,0
STARLINK-31124,2023-211H,2026-06-18T11:45:53.527104,15.27570334,.0000922,43.0002,235.7636,277.7138,82.3609,0,U,58674,999,13788,.61816E-4,.1439E-4,0
STARLINK-31126,2023-211J,2026-06-18T20:48:37.671552,15.27573804,.00012325,43.0016,233.4240,273.0857,86.9854,0,U,58675,999,13794,-.3827358E-5,-.367E-5,0
STARLINK-31066,2023-211K,2026-06-18T20:39:21.571776,15.27551822,.00003146,43.0134,19.7067,223.2283,136.8544,0,U,58676,999,13750,-.11989323E-3,-.3557E-4,0
STARLINK-31058,2023-211L,2026-06-18T21:14:32.028288,15.27576132,.00014991,43.0009,233.5653,277.7834,82.2848,0,U,58677,999,13794,-.31738463E-4,-.1135E-4,0
STARLINK-31125,2023-211M,2026-06-18T21:47:50.666784,15.27577333,.00017038,43.0040,233.7410,277.1715,82.8943,0,U,58678,999,13911,.30855418E-4,.587E-5,0
STARLINK-31110,2023-211N,2026-06-18T21:20:05.019072,15.27575881,.0001169,43.0015,233.5942,273.5790,86.4928,0,U,58679,999,13794,.11389411E-4,.51E-6,0
STARLINK-31112,2023-211P,2026-06-18T21:31:11.358336,15.27572724,.00011854,43.0017,233.6536,279.2247,80.8471,0,U,58680,999,13912,.914455E-6,-.237E-5,0
STARLINK-31147,2023-211Q,2026-06-18T10:54:17.898048,15.27583578,.0001228,43.0011,236.3571,265.7669,94.3042,0,U,58681,999,13787,.65542E-4,.1542E-4,0
STARLINK-31144,2023-211R,2026-06-18T20:52:19.638336,15.27576045,.00013099,43.0004,233.4445,277.6430,82.4273,0,U,58682,999,13794,.12943681E-4,.94E-6,0
STARLINK-31095,2023-211S,2026-06-18T11:12:47.913408,15.27577790,.0001315,43.0016,236.4474,269.0746,90.9955,0,U,58683,999,13914,.42415E-4,.905E-5,0
STARLINK-31107,2023-211T,2026-06-18T20:46:59.152224,15.27579146,.00012825,42.9992,234.2762,277.1622,82.9084,0,U,58684,999,13793,.31775664E-4,.612E-5,0
STARLINK-31121,2023-211U,2026-06-18T20:57:52.960032,15.27572825,.00009645,43.0007,233.4734,273.6639,86.4102,0,U,58685,999,13794,-.10033548E-4,-.538E-5,0
STARLINK-31137,2023-211V,2026-06-18T12:24:46.404864,15.27616588,.0001841,42.9994,235.9650,269.3752,90.6889,0,U,58686,999,13788,.55331E-3,.15012E-3,0
STARLINK-31106,2023-211Y,2026-06-18T21:38:34.814112,15.27606174,.0001923,43.0054,233.6952,285.8211,74.2429,0,U,58689,999,13794,.20954044E-3,.5513E-4,0
STARLINK-11072 [DTC],2024-002A,2026-06-18T04:47:30.021792,15.69718551,.0001229,53.1608,138.5401,83.6018,276.5140,0,U,58705,999,14222,.636E-5,.182E-5,0
